[{"OBJECT_NAME":"KUIPER-00062","OBJECT_ID":"2025-134Y","EPOCH":"2026-03-09T15:11:13.430112","MEAN_MOTION":14.79751621,"ECCENTRICITY":3.58e-5,"INCLINATION":51.8965,"RA_OF_ASC_NODE":230.8718,"ARG_OF_PERICENTER":228.7271,"MEAN_ANOMALY":131.366,"EPHEMERIS_TYPE":0,"CLASSIFICATION_TYPE":"U","NORAD_CAT_ID":64522,"ELEMENT_SET_NO":999,"REV_AT_EPOCH":4010,"BSTAR":8.8484e-5,"MEAN_MOTION_DOT":4.51e-6,"MEAN_MOTION_DDOT":0},{"OBJECT_NAME":"GEESAT-6 05","OBJECT_ID":"2025-214F","EPOCH":"2026-03-09T22:35:26.117664","MEAN_MOTION":14.83005779,"ECCENTRICITY":0.0012614,"INCLINATION":49.9792,"RA_OF_ASC_NODE":48.1153,"ARG_OF_PERICENTER":192.2595,"MEAN_ANOMALY":167.8037,"EPHEMERIS_TYPE":0,"CLASSIFICATION_TYPE":"U","NORAD_CAT_ID":65717,"ELEMENT_SET_NO":999,"REV_AT_EPOCH":2477,"BSTAR":0.00036224871,"MEAN_MOTION_DOT":2.753e-5,"MEAN_MOTION_DDOT":0}]
